[{"OBJECT_NAME":"STARLINK-35624","OBJECT_ID":"2025-240W","EPOCH":"2026-03-09T07:13:58.558080","MEAN_MOTION":15.30210705,"ECCENTRICITY":0.00013583,"INCLINATION":53.1608,"RA_OF_ASC_NODE":64.2741,"ARG_OF_PERICENTER":76.9142,"MEAN_ANOMALY":283.201,"EPHEMERIS_TYPE":0,"CLASSIFICATION_TYPE":"U","NORAD_CAT_ID":66166,"ELEMENT_SET_NO":999,"REV_AT_EPOCH":2193,"BSTAR":0.00083633548,"MEAN_MOTION_DOT":0.00024501,"MEAN_MOTION_DDOT":0},{"OBJECT_NAME":"DELTA 2 R\/B","OBJECT_ID":"1991-037B","EPOCH":"2026-03-09T23:18:31.697280","MEAN_MOTION":13.81159977,"ECCENTRICITY":0.07839021,"INCLINATION":24.9849,"RA_OF_ASC_NODE":350.254,"ARG_OF_PERICENTER":243.776,"MEAN_ANOMALY":108.0108,"EPHEMERIS_TYPE":0,"CLASSIFICATION_TYPE":"U","NORAD_CAT_ID":21393,"ELEMENT_SET_NO":999,"REV_AT_EPOCH":68485,"BSTAR":0.00038559843,"MEAN_MOTION_DOT":5.764e-5,"MEAN_MOTION_DDOT":0}]
